{"type": "FeatureCollection", "features": [ {"type": "Feature", "properties": {"norad_id": 30306, "name": "FENGYUN 1C DEB", "group": "fengyun-1c-debris", "lat": -34.34943735088334, "lon": -145.11710302332827, "alt_km": 822.178586448269, "timestamp": "2025-12-25T22:42:17.286642+00:00", "meta": {"OBJECT_NAME": "FENGYUN 1C DEB", "OBJECT_ID": "1999-025ZT", "EPOCH": "2025-12-24T22:09:16.475904", "MEAN_MOTION": 14.28262192, "ECCENTRICITY": 0.0112945, "INCLINATION": 98.5856, "RA_OF_ASC_NODE": 39.803, "ARG_OF_PERICENTER": 321.4929, "MEAN_ANOMALY": 37.8233, "EPHEMERIS_TYPE": 0, "CLASSIFICATION_TYPE": "U", "NORAD_CAT_ID": 30306, "ELEMENT_SET_NO": 999, "REV_AT_EPOCH": 97855, "BSTAR": 0.0010021, "MEAN_MOTION_DOT": 2.631e-05, "MEAN_MOTION_DDOT": 0}, "tle": {"line1": "1 30306U 99025ZT  25358.92310736  .00002631  00000+0  10021-2 0  9998", "line2": "2 30306  98.5856  39.8030 0112945 321.4929  37.8233 14.28262192978557"}}, "geometry": {"type": "Point", "coordinates": [-145.11710302332827, -34.34943735088334]}}, {"type": "Feature", "properties": {"norad_id": 30309, "name": "FENGYUN 1C DEB", "group": "fengyun-1c-debris", "lat": -80.18631133351874, "lon": 127.03640526984456, "alt_km": 954.3803700249937, "timestamp": "2025-12-25T22:42:17.286652+00:00", "meta": {"OBJECT_NAME": "FENGYUN 1C DEB", "OBJECT_ID": "1999-025ZW", "EPOCH": "2025-12-25T02:26:54.470112", "MEAN_MOTION": 13.93529671, "ECCENTRICITY": 0.00937983, "INCLINATION": 99.2244, "RA_OF_ASC_NODE": 56.2351, "ARG_OF_PERICENTER": 158.4311, "MEAN_ANOMALY": 202.0841, "EPHEMERIS_TYPE": 0, "CLASSIFICATION_TYPE": "U", "NORAD_CAT_ID": 30309, "ELEMENT_SET_NO": 999, "REV_AT_EPOCH": 96205, "BSTAR": 0.00039003449, "MEAN_MOTION_DOT": 4.86e-06, "MEAN_MOTION_DDOT": 0}, "tle": {"line1": "1 30309U 99025ZW  25359.10201933  .00000486  00000+0  39003-3 0  9998", "line2": "2 30309  99.2244  56.2351 0093798 158.4311 202.0841 13.93529671962053"}}, "geometry": {"type": "Point", "coordinates": [127.03640526984456, -80.18631133351874]}}, {"type": "Feature", "properties": {"norad_id": 30310, "name": "FENGYUN 1C DEB", "group": "fengyun-1c-debris", "lat": 3.3766723501261384, "lon": -160.40830663953946, "alt_km": 1005.8453353480245, "timestamp": "2025-12-25T22:42:17.286662+00:00", "meta": {"OBJECT_NAME": "FENGYUN 1C DEB", "OBJECT_ID": "1999-025ZX", "EPOCH": "2025-12-23T18:42:17.307936", "MEAN_MOTION": 14.0841603, "ECCENTRICITY": 0.02404585, "INCLINATION": 98.6639, "RA_OF_ASC_NODE": 16.993, "ARG_OF_PERICENTER": 326.1615, "MEAN_ANOMALY": 32.4407, "EPHEMERIS_TYPE": 0, "CLASSIFICATION_TYPE": "U", "NORAD_CAT_ID": 30310, "ELEMENT_SET_NO": 999, "REV_AT_EPOCH": 96887, "BSTAR": 0.00058910425, "MEAN_MOTION_DOT": 1.271e-05, "MEAN_MOTION_DDOT": 0}, "tle": {"line1": "1 30310U 99025ZX  25357.77936699  .00001271  00000+0  58910-3 0  9996", "line2": "2 30310  98.6639  16.9930 0240458 326.1615  32.4407 14.08416030968870"}}, "geometry": {"type": "Point", "coordinates": [-160.40830663953946, 3.3766723501261384]}}, {"type": "Feature", "properties": {"norad_id": 30311, "name": "FENGYUN 1C DEB", "group": "fengyun-1c-debris", "lat": 8.675683543265341, "lon": 93.73856552916659, "alt_km": 1081.2681529761321, "timestamp": "2025-12-25T22:42:17.286672+00:00", "meta": {"OBJECT_NAME": "FENGYUN 1C DEB", "OBJECT_ID": "1999-025ZY", "EPOCH": "2025-12-25T17:25:57.846144", "MEAN_MOTION": 13.77900618, "ECCENTRICITY": 0.0165658, "INCLINATION": 99.1388, "RA_OF_ASC_NODE": 94.9345, "ARG_OF_PERICENTER": 162.6838, "MEAN_ANOMALY": 198.0058, "EPHEMERIS_TYPE": 0, "CLASSIFICATION_TYPE": "U", "NORAD_CAT_ID": 30311, "ELEMENT_SET_NO": 999, "REV_AT_EPOCH": 95139, "BSTAR": 0.00040786, "MEAN_MOTION_DOT": 4.11e-06, "MEAN_MOTION_DDOT": 0}, "tle": {"line1": "1 30311U 99025ZY  25359.72636396  .00000411  00000+0  40786-3 0  9992", "line2": "2 30311  99.1388  94.9345 0165658 162.6838 198.0058 13.77900618951397"}}, "geometry": {"type": "Point", "coordinates": [93.73856552916659, 8.675683543265341]}}, {"type": "Feature", "properties": {"norad_id": 30312, "name": "FENGYUN 1C DEB", "group": "fengyun-1c-debris", "lat": 79.72682629301502, "lon": -40.7486287356139, "alt_km": 729.4622922189265, "timestamp": "2025-12-25T22:42:17.286682+00:00", "meta": {"OBJECT_NAME": "FENGYUN 1C DEB", "OBJECT_ID": "1999-025ZZ", "EPOCH": "2025-12-24T17:04:21.877248", "MEAN_MOTION": 14.46020291, "ECCENTRICITY": 0.0012208, "INCLINATION": 98.8649, "RA_OF_ASC_NODE": 78.5223, "ARG_OF_PERICENTER": 177.4372, "MEAN_ANOMALY": 334.2532, "EPHEMERIS_TYPE": 0, "CLASSIFICATION_TYPE": "U", "NORAD_CAT_ID": 30312, "ELEMENT_SET_NO": 999, "REV_AT_EPOCH": 98093, "BSTAR": 0.002516676, "MEAN_MOTION_DOT": 8.94e-05, "MEAN_MOTION_DDOT": 0}, "tle": {"line1": "1 30312U 99025ZZ  25358.71136432  .00008940  00000+0  25167-2 0  9997", "line2": "2 30312  98.8649  78.5223 0012208 177.4372 334.2532 14.46020291980936"}}, "geometry": {"type": "Point", "coordinates": [-40.7486287356139, 79.72682629301502]}}, {"type": "Feature", "properties": {"norad_id": 30313, "name": "FENGYUN 1C DEB", "group": "fengyun-1c-debris", "lat": -68.54363299547306, "lon": 109.6962566471458, "alt_km": 773.1990307920223, "timestamp": "2025-12-25T22:42:17.286692+00:00", "meta": {"OBJECT_NAME": "FENGYUN 1C DEB", "OBJECT_ID": "1999-025AAA", "EPOCH": "2025-12-25T03:08:32.612928", "MEAN_MOTION": 14.255473, "ECCENTRICITY": 0.00570264, "INCLINATION": 98.8743, "RA_OF_ASC_NODE": 85.4486, "ARG_OF_PERICENTER": 299.1773, "MEAN_ANOMALY": 129.8355, "EPHEMERIS_TYPE": 0, "CLASSIFICATION_TYPE": "U", "NORAD_CAT_ID": 30313, "ELEMENT_SET_NO": 999, "REV_AT_EPOCH": 97266, "BSTAR": 0.0018821913, "MEAN_MOTION_DOT": 4.485e-05, "MEAN_MOTION_DDOT": 0}, "tle": {"line1": "1 30313U 99025AAA 25359.13093302  .00004485  00000+0  18822-2 0  9993", "line2": "2 30313  98.8743  85.4486 0057026 299.1773 129.8355 14.25547300972668"}}, "geometry": {"type": "Point", "coordinates": [109.6962566471458, -68.54363299547306]}}, {"type": "Feature", "properties": {"norad_id": 30314, "name": "FENGYUN 1C DEB", "group": "fengyun-1c-debris", "lat": -56.394278032931055, "lon": -3.0709559437956133, "alt_km": 882.7982572325036, "timestamp": "2025-12-25T22:42:17.286703+00:00", "meta": {"OBJECT_NAME": "FENGYUN 1C DEB", "OBJECT_ID": "1999-025AAB", "EPOCH": "2025-12-19T07:54:02.351232", "MEAN_MOTION": 14.0121396, "ECCENTRICITY": 0.0143407, "INCLINATION": 98.3834, "RA_OF_ASC_NODE": 183.6699, "ARG_OF_PERICENTER": 339.1457, "MEAN_ANOMALY": 20.3896, "EPHEMERIS_TYPE": 0, "CLASSIFICATION_TYPE": "U", "NORAD_CAT_ID": 30314, "ELEMENT_SET_NO": 999, "REV_AT_EPOCH": 96201, "BSTAR": 0.00090289, "MEAN_MOTION_DOT": 1.445e-05, "MEAN_MOTION_DDOT": 0}, "tle": {"line1": "1 30314U 99025AAB 25353.32919388  .00001445  00000+0  90289-3 0  9991", "line2": "2 30314  98.3834 183.6699 0143407 339.1457  20.3896 14.01213960962014"}}, "geometry": {"type": "Point", "coordinates": [-3.0709559437956133, -56.394278032931055]}}, {"type": "Feature", "properties": {"norad_id": 30315, "name": "FENGYUN 1C DEB", "group": "fengyun-1c-debris", "lat": 7.948004957334295, "lon": -169.72195309932388, "alt_km": 851.8686080614898, "timestamp": "2025-12-25T22:42:17.286712+00:00", "meta": {"OBJECT_NAME": "FENGYUN 1C DEB", "OBJECT_ID": "1999-025AAC", "EPOCH": "2025-12-25T13:59:53.206080", "MEAN_MOTION": 14.19082387, "ECCENTRICITY": 0.0034594, "INCLINATION": 98.6016, "RA_OF_ASC_NODE": 8.7151, "ARG_OF_PERICENTER": 322.9641, "MEAN_ANOMALY": 156.8004, "EPHEMERIS_TYPE": 0, "CLASSIFICATION_TYPE": "U", "NORAD_CAT_ID": 30315, "ELEMENT_SET_NO": 999, "REV_AT_EPOCH": 97889, "BSTAR": 0.00033288, "MEAN_MOTION_DOT": 6.57e-06, "MEAN_MOTION_DDOT": 0}, "tle": {"line1": "1 30315U 99025AAC 25359.58325470  .00000657  00000+0  33288-3 0  9999", "line2": "2 30315  98.6016   8.7151 0034594 322.9641 156.8004 14.19082387978896"}}, "geometry": {"type": "Point", "coordinates": [-169.72195309932388, 7.948004957334295]}}, {"type": "Feature", "properties": {"norad_id": 30316, "name": "FENGYUN 1C DEB", "group": "fengyun-1c-debris", "lat": -6.820655572810402, "lon": -78.20235537601377, "alt_km": 733.6147941445342, "timestamp": "2025-12-25T22:42:17.286722+00:00", "meta": {"OBJECT_NAME": "FENGYUN 1C DEB", "OBJECT_ID": "1999-025AAD", "EPOCH": "2025-12-25T05:21:34.720992", "MEAN_MOTION": 14.56278684, "ECCENTRICITY": 0.0035142, "INCLINATION": 98.6477, "RA_OF_ASC_NODE": 102.0917, "ARG_OF_PERICENTER": 0.7198, "MEAN_ANOMALY": 359.4043, "EPHEMERIS_TYPE": 0, "CLASSIFICATION_TYPE": "U", "NORAD_CAT_ID": 30316, "ELEMENT_SET_NO": 999, "REV_AT_EPOCH": 98518, "BSTAR": 0.0021656, "MEAN_MOTION_DOT": 9.627e-05, "MEAN_MOTION_DDOT": 0}, "tle": {"line1": "1 30316U 99025AAD 25359.22331853  .00009627  00000+0  21656-2 0  9994", "line2": "2 30316  98.6477 102.0917 0035142   0.7198 359.4043 14.56278684985186"}}, "geometry": {"type": "Point", "coordinates": [-78.20235537601377, -6.820655572810402]}}, {"type": "Feature", "properties": {"norad_id": 30317, "name": "FENGYUN 1C DEB", "group": "fengyun-1c-debris", "lat": -50.37845312049884, "lon": 10.810327655719416, "alt_km": 870.8247030788734, "timestamp": "2025-12-25T22:42:17.286732+00:00", "meta": {"OBJECT_NAME": "FENGYUN 1C DEB", "OBJECT_ID": "1999-025AAE", "EPOCH": "2025-12-24T17:55:58.467936", "MEAN_MOTION": 14.0695344, "ECCENTRICITY": 0.00241918, "INCLINATION": 98.7866, "RA_OF_ASC_NODE": 358.8786, "ARG_OF_PERICENTER": 241.5937, "MEAN_ANOMALY": 118.2794, "EPHEMERIS_TYPE": 0, "CLASSIFICATION_TYPE": "U", "NORAD_CAT_ID": 30317, "ELEMENT_SET_NO": 999, "REV_AT_EPOCH": 97182, "BSTAR": 6.7649773e-05, "MEAN_MOTION_DOT": 7e-07, "MEAN_MOTION_DDOT": 0}, "tle": {"line1": "1 30317U 99025AAE 25358.74720449  .00000070  00000+0  67650-4 0  9993", "line2": "2 30317  98.7866 358.8786 0024191 241.5937 118.2794 14.06953440971828"}}, "geometry": {"type": "Point", "coordinates": [10.810327655719416, -50.37845312049884]}}]}